{"type": "FeatureCollection", "features": [{"type": "Feature", "properties": {"COUNTYSN": "10014001", "COUNTYNAME": "臺東縣", "name": "臺東縣", "centroid": [121.1258, 22.8395]}, "geometry": {"type": "MultiPolygon", "coordinates": [[[[121.500447, 22.646621], [121.505889, 22.63339], [121.494849, 22.63339], [121.49205, 22.63969], [121.472303, 22.647093], [121.47448, 22.659694], [121.464373, 22.670247], [121.464062, 22.678595], [121.493761, 22.676232], [121.50931, 22.67891], [121.510243, 22.664734], [121.500447, 22.646621]]], [[[121.495782, 23.434642], [121.478056, 23.395895], [121.471992, 23.372111], [121.472769, 23.362975], [121.46826, 23.348012], [121.467794, 23.331631], [121.462662, 23.314305], [121.448357, 23.31084], [121.43825, 23.298869], [121.427832, 23.278708], [121.42721, 23.267209], [121.422079, 23.262327], [121.413993, 23.231927], [121.419902, 23.226572], [121.409951, 23.213499], [121.397511, 23.207828], [121.397822, 23.186092], [121.407307, 23.165773], [121.399222, 23.147344], [121.401087, 23.130333], [121.411039, 23.122143], [121.400621, 23.113795], [121.396267, 23.117103], [121.386471, 23.103242], [121.375276, 23.096626], [121.366102, 23.096154], [121.348376, 23.068117], [121.345888, 23.050948], [121.339823, 23.03819], [121.336403, 23.019919], [121.327695, 23.014721], [121.316811, 22.982274], [121.299706, 22.95975], [121.287112, 22.952662], [121.267831, 22.910922], [121.260833, 22.904937], [121.247306, 22.881468], [121.240308, 22.879893], [121.233778, 22.865087], [121.226625, 22.867922], [121.207033, 22.864299], [121.189929, 22.848863], [121.187597, 22.829175], [121.192417, 22.825394], [121.201124, 22.795782], [121.183087, 22.787277], [121.179822, 22.769478], [121.17298, 22.75546], [121.156809, 22.747427], [121.128043, 22.719863], [121.100832, 22.705057], [121.077508, 22.695606], [121.05605, 22.677177], [121.034748, 22.667097], [121.022308, 22.649141], [121.012512, 22.619529], [121.009247, 22.588972], [120.98499, 22.568811], [120.974883, 22.548177], [120.959178, 22.504232], [120.946428, 22.456821], [120.922171, 22.398385], [120.914863, 22.384997], [120.908799, 22.359165], [120.902579, 22.352392], [120.89496, 22.334436], [120.892472, 22.318055], [120.89185, 22.276945], [120.896204, 22.246388], [120.880499, 22.234575], [120.866194, 22.229849], [120.85873, 22.240875], [120.839449, 22.243553], [120.815348, 22.263242], [120.799643, 22.257099], [120.797933, 22.276472], [120.80664, 22.27726], [120.805552, 22.284033], [120.793268, 22.285765], [120.789847, 22.293326], [120.777719, 22.297894], [120.778185, 22.308604], [120.793112, 22.312542], [120.796533, 22.319788], [120.792802, 22.334751], [120.785027, 22.345462], [120.767301, 22.347667], [120.762947, 22.359165], [120.75284, 22.360268], [120.74351, 22.367356], [120.748642, 22.380429], [120.756416, 22.388619], [120.752218, 22.392557], [120.75766, 22.404843], [120.764657, 22.408781], [120.779896, 22.409253], [120.789536, 22.417601], [120.775075, 22.443433], [120.776475, 22.449418], [120.758127, 22.458554], [120.751441, 22.458554], [120.754395, 22.472572], [120.750819, 22.479188], [120.76388, 22.491158], [120.762791, 22.500924], [120.753617, 22.511005], [120.750041, 22.534001], [120.739468, 22.551485], [120.741645, 22.568653], [120.748797, 22.572118], [120.745843, 22.589602], [120.754706, 22.601888], [120.752995, 22.611496], [120.761548, 22.63024], [120.786271, 22.663002], [120.791402, 22.678753], [120.786737, 22.692928], [120.80804, 22.689148], [120.820324, 22.695764], [120.83494, 22.696551], [120.848623, 22.717027], [120.883765, 22.717343], [120.894804, 22.737661], [120.89325, 22.766486], [120.903823, 22.775621], [120.903201, 22.800035], [120.891228, 22.811691], [120.868526, 22.816889], [120.861685, 22.826654], [120.864639, 22.843035], [120.868993, 22.858156], [120.859197, 22.863197], [120.86495, 22.87249], [120.859819, 22.87816], [120.841937, 22.881153], [120.828565, 22.904149], [120.83323, 22.91234], [120.821879, 22.935179], [120.824522, 22.951717], [120.820946, 22.960853], [120.83012, 22.969988], [120.832297, 22.980069], [120.841626, 22.984794], [120.841937, 22.991095], [120.851889, 22.999285], [120.850956, 23.004956], [120.860596, 23.007948], [120.861063, 23.029685], [120.879566, 23.034725], [120.881277, 23.044018], [120.869148, 23.059769], [120.88563, 23.088908], [120.889362, 23.110015], [120.885008, 23.119938], [120.887963, 23.136634], [120.88563, 23.144509], [120.876456, 23.151282], [120.89496, 23.160733], [120.898381, 23.176169], [120.909265, 23.179792], [120.912531, 23.186722], [120.906622, 23.196488], [120.911598, 23.209246], [120.911753, 23.228305], [120.915796, 23.23807], [120.926214, 23.244528], [120.938031, 23.245158], [120.970996, 23.281228], [120.986078, 23.280283], [121.010646, 23.292726], [121.028372, 23.297136], [121.038946, 23.300602], [121.056361, 23.290206], [121.062114, 23.279023], [121.062425, 23.265949], [121.079529, 23.232715], [121.09228, 23.233817], [121.108606, 23.223422], [121.129287, 23.223264], [121.13986, 23.201528], [121.156032, 23.20011], [121.161629, 23.206253], [121.175935, 23.210033], [121.191017, 23.202315], [121.19817, 23.188612], [121.199258, 23.175224], [121.212475, 23.154747], [121.212009, 23.144194], [121.230823, 23.139311], [121.238443, 23.128758], [121.249171, 23.131593], [121.267053, 23.114267], [121.264254, 23.103872], [121.27234, 23.097886], [121.284468, 23.106549], [121.302816, 23.11096], [121.316033, 23.110645], [121.322564, 23.120095], [121.320387, 23.137736], [121.327229, 23.152227], [121.317433, 23.164356], [121.323808, 23.178374], [121.334692, 23.177901], [121.346976, 23.209246], [121.34651, 23.216964], [121.356461, 23.223264], [121.352574, 23.231297], [121.361592, 23.246891], [121.359416, 23.252561], [121.377919, 23.269572], [121.37652, 23.295876], [121.387871, 23.310682], [121.390203, 23.320605], [121.399844, 23.323125], [121.402176, 23.333994], [121.410106, 23.346122], [121.422234, 23.355258], [121.422701, 23.36014], [121.407463, 23.364551], [121.399999, 23.385342], [121.410417, 23.39873], [121.419591, 23.419364], [121.433274, 23.432752], [121.440894, 23.433855], [121.447424, 23.443778], [121.46204, 23.439525], [121.473236, 23.440628], [121.480389, 23.430705], [121.495782, 23.434642]]], [[[121.509466, 22.069189], [121.49967, 22.080058], [121.505578, 22.085885], [121.512886, 22.081003], [121.531857, 22.08116], [121.568086, 22.085255], [121.568864, 22.067614], [121.57415, 22.060841], [121.564043, 22.051548], [121.569952, 22.04005], [121.600584, 22.020519], [121.593276, 22.002563], [121.570263, 22.002878], [121.56933, 22.008706], [121.553159, 22.024772], [121.533722, 22.026662], [121.51724, 22.042885], [121.507289, 22.057691], [121.509466, 22.069189]]]]}}, {"type": "Feature", "properties": {"COUNTYSN": "10002001", "COUNTYNAME": "宜蘭縣", "name": "宜蘭縣", "centroid": [121.6696, 24.6254]}, "geometry": {"type": "MultiPolygon", "coordinates": [[[[121.964125, 24.83711], [121.941268, 24.83837], [121.948265, 24.850341], [121.956506, 24.849239], [121.964125, 24.83711]]], [[[121.773492, 24.314493], [121.759186, 24.314178], [121.74457, 24.322841], [121.713627, 24.326936], [121.697611, 24.334181], [121.688593, 24.333551], [121.686105, 24.340324], [121.675998, 24.337489], [121.664025, 24.349145], [121.648631, 24.349617], [121.630905, 24.370566], [121.621576, 24.366471], [121.620176, 24.345365], [121.60416, 24.328984], [121.601362, 24.314493], [121.559845, 24.322841], [121.55658, 24.330401], [121.54414, 24.337804], [121.539476, 24.335914], [121.52517, 24.342529], [121.49827, 24.339222], [121.485675, 24.348515], [121.46515, 24.355445], [121.451001, 24.365368], [121.446958, 24.375449], [121.441671, 24.373716], [121.436851, 24.383482], [121.38927, 24.375764], [121.380407, 24.367416], [121.372632, 24.368676], [121.36408, 24.389467], [121.354595, 24.393405], [121.337647, 24.390412], [121.326918, 24.398603], [121.326918, 24.434358], [121.316811, 24.441761], [121.323963, 24.456882], [121.336247, 24.46775], [121.345421, 24.484131], [121.357239, 24.486336], [121.371233, 24.498307], [121.373254, 24.50949], [121.383517, 24.51012], [121.390514, 24.522878], [121.401709, 24.529336], [121.396734, 24.539732], [121.394868, 24.556113], [121.403886, 24.568871], [121.412127, 24.572966], [121.402953, 24.59171], [121.412749, 24.603681], [121.427832, 24.606201], [121.434829, 24.624315], [121.451311, 24.650934], [121.44758, 24.657234], [121.459708, 24.6733], [121.479922, 24.673773], [121.492517, 24.673143], [121.511798, 24.684326], [121.523771, 24.683223], [121.536366, 24.688264], [121.543207, 24.70559], [121.570574, 24.713938], [121.579437, 24.722443], [121.587056, 24.720081], [121.594209, 24.729216], [121.596075, 24.748117], [121.588922, 24.755048], [121.597474, 24.772531], [121.593431, 24.787337], [121.609603, 24.793795], [121.625774, 24.79537], [121.625929, 24.808759], [121.645832, 24.809704], [121.647232, 24.813956], [121.66076, 24.810964], [121.669156, 24.817894], [121.676775, 24.814114], [121.688282, 24.816162], [121.68766, 24.824825], [121.730576, 24.855224], [121.742082, 24.852389], [121.761052, 24.856957], [121.769293, 24.865777], [121.775513, 24.865147], [121.783132, 24.874125], [121.781733, 24.889404], [121.811587, 24.906572], [121.818273, 24.902792], [121.83149, 24.90484], [121.85357, 24.925158], [121.839887, 24.942169], [121.841442, 24.954455], [121.847195, 24.960283], [121.861034, 24.963591], [121.871763, 24.960756], [121.888556, 24.963276], [121.902861, 24.974459], [121.94049, 24.984382], [121.944067, 24.988005], [121.963037, 24.987532], [121.965991, 24.983122], [121.957128, 24.982807], [121.926341, 24.969419], [121.919654, 24.955558], [121.893998, 24.940279], [121.885602, 24.931301], [121.88498, 24.917755], [121.865854, 24.903107], [121.835689, 24.869715], [121.824182, 24.829077], [121.819051, 24.797733], [121.817807, 24.776469], [121.819206, 24.757883], [121.825737, 24.733469], [121.836466, 24.713938], [121.837399, 24.679443], [121.843308, 24.650146], [121.857302, 24.618644], [121.867098, 24.605256], [121.859479, 24.603838], [121.865543, 24.583677], [121.871918, 24.584465], [121.86943, 24.570446], [121.873629, 24.534849], [121.869741, 24.528391], [121.841908, 24.520358], [121.838332, 24.508545], [121.839887, 24.498307], [121.846728, 24.496732], [121.851393, 24.483973], [121.83289, 24.468065], [121.820295, 24.461292], [121.821694, 24.456567], [121.812365, 24.443493], [121.800858, 24.434043], [121.793239, 24.416874], [121.789196, 24.399705], [121.787175, 24.373401], [121.770693, 24.333866], [121.773492, 24.314493]]]]}}, {"type": "Feature", "properties": {"COUNTYSN": "63000001", "COUNTYNAME": "臺北市", "name": "臺北市", "centroid": [121.5648, 25.0764]}, "geometry": {"type": "Polygon", "coordinates": [[[121.559223, 25.210094], [121.572906, 25.194973], [121.583013, 25.194973], [121.58348, 25.177017], [121.577105, 25.166936], [121.587989, 25.162998], [121.595764, 25.143625], [121.603538, 25.137009], [121.595608, 25.113225], [121.597474, 25.109445], [121.6152, 25.103932], [121.62624, 25.095742], [121.628573, 25.086291], [121.616133, 25.063925], [121.621887, 25.059829], [121.616444, 25.048174], [121.622198, 25.039983], [121.650186, 25.027697], [121.665113, 25.029587], [121.66418, 25.023287], [121.63246, 25.02565], [121.623441, 25.017302], [121.604005, 25.019034], [121.59763, 25.014782], [121.595919, 25.004386], [121.601984, 24.990368], [121.600118, 24.976979], [121.611469, 24.974617], [121.619554, 24.967214], [121.596852, 24.960598], [121.574772, 24.966899], [121.561245, 24.964693], [121.553003, 24.980444], [121.536988, 24.992258], [121.530613, 25.009741], [121.519728, 25.019192], [121.510399, 25.021712], [121.493139, 25.009269], [121.488941, 25.013994], [121.487541, 25.036045], [121.503246, 25.048331], [121.506978, 25.07117], [121.502468, 25.083141], [121.488785, 25.097159], [121.466083, 25.101727], [121.457065, 25.10913], [121.459242, 25.122046], [121.482876, 25.15024], [121.487386, 25.151343], [121.502779, 25.173394], [121.519884, 25.169299], [121.52175, 25.179064], [121.542741, 25.18883], [121.543207, 25.193713], [121.559223, 25.210094]]]}}, {"type": "Feature", "properties": {"COUNTYSN": "10009001", "COUNTYNAME": "雲林縣", "name": "雲林縣", "centroid": [120.3687, 23.6269]}, "geometry": {"type": "MultiPolygon", "coordinates": [[[[120.131804, 23.530093], [120.127294, 23.530093], [120.126361, 23.544427], [120.136624, 23.543482], [120.131804, 23.530093]]], [[[120.09744, 23.521273], [120.09122, 23.531196], [120.098528, 23.542064], [120.105214, 23.536079], [120.09744, 23.521273]]], [[[120.059811, 23.489613], [120.046749, 23.4778], [120.029801, 23.479533], [120.022959, 23.47087], [120.024514, 23.460317], [120.004455, 23.460317], [119.996836, 23.465829], [120.016117, 23.484258], [120.081113, 23.524108], [120.090754, 23.52017], [120.093553, 23.510562], [120.082202, 23.511822], [120.069918, 23.503789], [120.059811, 23.489613]]], [[[120.730916, 23.610739], [120.724851, 23.603651], [120.732626, 23.597193], [120.73216, 23.577189], [120.718321, 23.568998], [120.709458, 23.575141], [120.694064, 23.576244], [120.676182, 23.570573], [120.670585, 23.578291], [120.650837, 23.572464], [120.643995, 23.579079], [120.648816, 23.593255], [120.625492, 23.590577], [120.618961, 23.584119], [120.576823, 23.583489], [120.556609, 23.592782], [120.536861, 23.594673], [120.51758, 23.611054], [120.506385, 23.626174], [120.503586, 23.63531], [120.48586, 23.630585], [120.478707, 23.632632], [120.460203, 23.629325], [120.444499, 23.630585], [120.429882, 23.618457], [120.402671, 23.626962], [120.3865, 23.620977], [120.379814, 23.609951], [120.366442, 23.607746], [120.356646, 23.594042], [120.333633, 23.591837], [120.332544, 23.578291], [120.319483, 23.572306], [120.306422, 23.571991], [120.31062, 23.564588], [120.29336, 23.564116], [120.290872, 23.5512], [120.276101, 23.543009], [120.272524, 23.531354], [120.262884, 23.534189], [120.256042, 23.546002], [120.242048, 23.541434], [120.247023, 23.516233], [120.241426, 23.508987], [120.223078, 23.504262], [120.195711, 23.512767], [120.180473, 23.51009], [120.166634, 23.517178], [120.158082, 23.515918], [120.145798, 23.5208], [120.150307, 23.531984], [120.139578, 23.549625], [120.1416, 23.611999], [120.140045, 23.621292], [120.145487, 23.652006], [120.150774, 23.655786], [120.163213, 23.683351], [120.178762, 23.701779], [120.169588, 23.707765], [120.173631, 23.736116], [120.180939, 23.75864], [120.169433, 23.758483], [120.165701, 23.770611], [120.170988, 23.772344], [120.181872, 23.798648], [120.17643, 23.805578], [120.200065, 23.819124], [120.212815, 23.822904], [120.223078, 23.835663], [120.218568, 23.84086], [120.227431, 23.846688], [120.242203, 23.842278], [120.255109, 23.834245], [120.308132, 23.820227], [120.360066, 23.823219], [120.370329, 23.828575], [120.41029, 23.82637], [120.433148, 23.83015], [120.452118, 23.817234], [120.483061, 23.806523], [120.511049, 23.800065], [120.528776, 23.79912], [120.551944, 23.80101], [120.592683, 23.791087], [120.630312, 23.789827], [120.640419, 23.786047], [120.655502, 23.75549], [120.655813, 23.735486], [120.640264, 23.730919], [120.639175, 23.7106], [120.647883, 23.683193], [120.64695, 23.672955], [120.634977, 23.651849], [120.634977, 23.642713], [120.629068, 23.635153], [120.633888, 23.619244], [120.644928, 23.631057], [120.653014, 23.629482], [120.65177, 23.616251], [120.661411, 23.610266], [120.68349, 23.610739], [120.691421, 23.620189], [120.705104, 23.617039], [120.714278, 23.621607], [120.718476, 23.629955], [120.730605, 23.618457], [120.730916, 23.610739]]]]}}, {"type": "Feature", "properties": {"COUNTYSN": "10003001", "COUNTYNAME": "桃園市", "name": "桃園市", "centroid": [121.2784, 24.8698]}, "geometry": {"type": "Polygon", "coordinates": [[[121.283535, 25.11732], [121.282758, 25.110075], [121.291621, 25.102672], [121.297996, 25.104562], [121.302661, 25.096844], [121.324896, 25.092591], [121.339046, 25.083613], [121.346199, 25.083613], [121.354906, 25.065185], [121.376831, 25.06613], [121.388959, 25.060617], [121.387404, 25.055104], [121.398133, 25.051166], [121.398289, 25.03006], [121.411661, 25.018247], [121.397045, 25.016199], [121.401554, 24.999188], [121.368745, 24.976822], [121.353973, 24.977767], [121.342622, 24.982335], [121.327229, 24.978397], [121.329561, 24.966899], [121.328006, 24.9491], [121.331582, 24.945792], [121.315722, 24.938547], [121.324585, 24.923426], [121.317588, 24.916338], [121.32614, 24.909092], [121.320387, 24.900272], [121.333448, 24.891609], [121.342156, 24.892554], [121.345732, 24.879953], [121.35444, 24.87318], [121.345888, 24.86814], [121.353507, 24.858532], [121.346821, 24.845773], [121.372943, 24.834905], [121.393313, 24.843883], [121.402953, 24.843411], [121.415548, 24.835535], [121.416948, 24.825455], [121.423789, 24.825297], [121.436384, 24.812224], [121.438561, 24.795055], [121.449446, 24.786077], [121.4255, 24.767019], [121.423323, 24.761821], [121.434985, 24.734099], [121.450068, 24.705905], [121.474169, 24.695982], [121.47308, 24.689996], [121.479922, 24.673773], [121.459708, 24.6733], [121.44758, 24.657234], [121.451311, 24.650934], [121.434829, 24.624315], [121.427832, 24.606201], [121.412749, 24.603681], [121.402953, 24.59171], [121.38756, 24.586512], [121.372477, 24.594073], [121.363458, 24.602893], [121.358794, 24.617384], [121.36548, 24.630772], [121.358172, 24.633608], [121.352263, 24.644791], [121.353507, 24.66637], [121.339823, 24.670465], [121.338735, 24.679601], [121.329561, 24.691099], [121.318055, 24.698029], [121.303905, 24.692831], [121.299551, 24.696612], [121.307637, 24.719923], [121.298618, 24.730791], [121.307637, 24.755048], [121.301417, 24.763081], [121.27716, 24.770956], [121.260211, 24.781824], [121.261144, 24.790015], [121.247306, 24.797418], [121.245284, 24.807026], [121.221494, 24.799466], [121.21714, 24.812381], [121.2075, 24.807026], [121.203301, 24.817264], [121.19646, 24.817894], [121.173758, 24.82766], [121.176246, 24.831913], [121.151989, 24.843883], [121.161318, 24.859634], [121.155721, 24.880583], [121.138927, 24.882316], [121.135662, 24.878063], [121.113582, 24.882473], [121.108451, 24.886096], [121.109073, 24.897752], [121.091036, 24.893499], [121.083572, 24.898854], [121.070977, 24.899484], [121.059004, 24.907045], [121.06087, 24.920276], [121.057605, 24.933034], [121.046254, 24.943587], [121.037857, 24.946422], [121.019354, 24.940437], [121.00707, 24.946265], [121.003027, 24.940122], [120.986078, 24.939492], [120.991832, 24.94973], [121.002561, 24.958393], [121.012512, 24.974302], [121.010491, 24.987217], [121.025418, 25.011946], [121.04983, 25.040298], [121.083728, 25.052426], [121.091191, 25.061562], [121.119957, 25.074793], [121.173291, 25.085976], [121.21232, 25.108815], [121.242641, 25.115273], [121.260367, 25.122046], [121.283535, 25.11732]]]}}, {"type": "Feature", "properties": {"COUNTYSN": "10013001", "COUNTYNAME": "屏東縣", "name": "屏東縣", "centroid": [120.7077, 22.4021]}, "geometry": {"type": "MultiPolygon", "coordinates": [[[[120.358822, 22.321678], [120.352914, 22.324985], [120.363332, 22.340106], [120.367064, 22.351762], [120.381058, 22.355385], [120.388832, 22.350187], [120.387589, 22.342469], [120.377482, 22.336956], [120.368152, 22.326561], [120.358822, 22.321678]]], [[[120.424129, 22.476982], [120.425684, 22.498089], [120.422885, 22.518408], [120.430815, 22.543924], [120.436569, 22.547547], [120.442788, 22.562353], [120.446987, 22.585979], [120.445121, 22.600313], [120.437968, 22.606771], [120.433459, 22.623309], [120.435791, 22.630397], [120.436724, 22.665049], [120.442633, 22.684423], [120.451029, 22.697811], [120.455694, 22.718603], [120.453828, 22.769478], [120.464091, 22.80035], [120.468756, 22.830592], [120.476219, 22.838153], [120.509961, 22.828544], [120.523489, 22.832797], [120.553188, 22.828387], [120.565472, 22.83705], [120.574335, 22.847761], [120.605433, 22.872962], [120.620361, 22.87564], [120.644928, 22.885091], [120.648505, 22.877058], [120.65799, 22.879893], [120.6611, 22.859574], [120.672606, 22.856424], [120.679137, 22.862882], [120.690332, 22.864772], [120.705726, 22.881153], [120.725007, 22.880838], [120.742733, 22.873592], [120.755172, 22.864614], [120.765746, 22.848706], [120.778341, 22.835317], [120.792646, 22.840988], [120.793734, 22.852171], [120.801043, 22.851068], [120.822501, 22.865402], [120.837117, 22.864299], [120.847846, 22.851856], [120.853133, 22.857526], [120.864639, 22.843035], [120.861685, 22.826654], [120.868526, 22.816889], [120.891228, 22.811691], [120.903201, 22.800035], [120.903823, 22.775621], [120.89325, 22.766486], [120.894804, 22.737661], [120.883765, 22.717343], [120.848623, 22.717027], [120.83494, 22.696551], [120.820324, 22.695764], [120.80804, 22.689148], [120.786737, 22.692928], [120.791402, 22.678753], [120.786271, 22.663002], [120.761548, 22.63024], [120.752995, 22.611496], [120.754706, 22.601888], [120.745843, 22.589602], [120.748797, 22.572118], [120.741645, 22.568653], [120.739468, 22.551485], [120.750041, 22.534001], [120.753617, 22.511005], [120.762791, 22.500924], [120.76388, 22.491158], [120.750819, 22.479188], [120.754395, 22.472572], [120.751441, 22.458554], [120.758127, 22.458554], [120.776475, 22.449418], [120.775075, 22.443433], [120.789536, 22.417601], [120.779896, 22.409253], [120.764657, 22.408781], [120.75766, 22.404843], [120.752218, 22.392557], [120.756416, 22.388619], [120.748642, 22.380429], [120.74351, 22.367356], [120.75284, 22.360268], [120.762947, 22.359165], [120.767301, 22.347667], [120.785027, 22.345462], [120.792802, 22.334751], [120.796533, 22.319788], [120.793112, 22.312542], [120.778185, 22.308604], [120.777719, 22.297894], [120.789847, 22.293326], [120.793268, 22.285765], [120.805552, 22.284033], [120.80664, 22.27726], [120.797933, 22.276472], [120.799643, 22.257099], [120.815348, 22.263242], [120.839449, 22.243553], [120.85873, 22.240875], [120.866194, 22.229849], [120.880499, 22.234575], [120.896204, 22.246388], [120.899314, 22.234102], [120.894027, 22.218036], [120.896359, 22.203545], [120.890762, 22.195985], [120.894027, 22.177241], [120.891228, 22.148102], [120.897137, 22.143377], [120.885786, 22.132666], [120.893405, 22.108409], [120.900091, 22.105889], [120.898692, 22.094233], [120.891384, 22.086358], [120.893872, 22.047926], [120.900713, 22.03438], [120.888118, 22.026189], [120.887185, 22.017211], [120.876612, 22.011541], [120.874746, 21.99957], [120.86184, 21.992167], [120.845824, 21.988229], [120.841004, 21.949482], [120.861529, 21.917192], [120.866349, 21.900969], [120.860907, 21.896716], [120.848312, 21.900969], [120.847068, 21.91294], [120.834473, 21.918767], [120.82219, 21.934676], [120.812705, 21.933573], [120.798399, 21.937826], [120.798244, 21.941921], [120.782384, 21.944442], [120.766368, 21.958932], [120.754084, 21.956412], [120.743666, 21.944442], [120.746931, 21.934203], [120.739623, 21.91987], [120.727184, 21.918767], [120.711324, 21.934203], [120.712878, 21.965705], [120.715988, 21.972636], [120.706659, 21.995632], [120.69904, 21.99831], [120.687222, 22.020676], [120.687222, 22.032805], [120.695308, 22.041783], [120.69764, 22.055013], [120.707125, 22.061944], [120.701217, 22.086043], [120.716921, 22.093288], [120.709924, 22.123845], [120.702771, 22.130618], [120.697951, 22.144007], [120.700595, 22.148889], [120.693286, 22.178186], [120.683801, 22.198347], [120.6866, 22.206538], [120.670274, 22.23615], [120.650682, 22.253003], [120.652392, 22.267809], [120.643218, 22.291436], [120.642751, 22.302461], [120.630468, 22.319], [120.606055, 22.341051], [120.592372, 22.364678], [120.577756, 22.377121], [120.548368, 22.39618], [120.470932, 22.436187], [120.451962, 22.448001], [120.438745, 22.463594], [120.443721, 22.467217], [120.424129, 22.476982]]]]}}, {"type": "Feature", "properties": {"COUNTYSN": "10006001", "COUNTYNAME": "臺中市", "name": "臺中市", "centroid": [120.9761, 24.2512]}, "geometry": {"type": "Polygon", "coordinates": [[[120.621138, 24.440973], [120.639642, 24.427742], [120.648194, 24.409944], [120.658145, 24.406636], [120.677271, 24.384112], [120.68971, 24.374504], [120.69282, 24.367101], [120.707281, 24.357808], [120.730605, 24.351665], [120.762791, 24.326148], [120.783938, 24.318273], [120.806329, 24.315753], [120.817525, 24.307562], [120.83323, 24.290709], [120.857486, 24.289134], [120.874746, 24.294804], [120.904445, 24.292284], [120.92186, 24.302364], [120.916262, 24.334654], [120.935699, 24.342844], [120.942541, 24.339064], [120.95669, 24.339222], [120.972084, 24.333394], [120.982036, 24.335914], [120.991676, 24.329614], [121.004738, 24.331819], [121.017488, 24.311815], [121.034281, 24.297639], [121.045166, 24.295276], [121.052007, 24.299529], [121.055117, 24.310082], [121.08124, 24.324101], [121.08606, 24.317643], [121.09399, 24.31969], [121.108451, 24.330874], [121.121046, 24.330559], [121.124778, 24.341742], [121.140793, 24.35954], [121.167693, 24.360801], [121.172825, 24.373086], [121.189618, 24.381592], [121.196615, 24.396555], [121.206878, 24.397815], [121.21543, 24.379544], [121.231601, 24.384427], [121.234089, 24.397343], [121.242796, 24.405848], [121.244973, 24.422544], [121.259434, 24.42916], [121.268608, 24.427585], [121.304527, 24.432783], [121.316811, 24.441761], [121.326918, 24.434358], [121.326918, 24.398603], [121.337647, 24.390412], [121.354595, 24.393405], [121.36408, 24.389467], [121.372632, 24.368676], [121.380407, 24.367416], [121.38927, 24.375764], [121.436851, 24.383482], [121.441671, 24.373716], [121.446958, 24.375449], [121.451001, 24.365368], [121.441049, 24.35954], [121.434674, 24.3482], [121.431719, 24.330086], [121.434207, 24.322998], [121.422701, 24.30898], [121.404664, 24.308822], [121.401865, 24.296221], [121.390358, 24.290236], [121.379941, 24.27984], [121.385227, 24.26472], [121.38445, 24.255426], [121.366257, 24.252434], [121.352107, 24.244243], [121.351952, 24.23495], [121.342622, 24.224082], [121.329872, 24.231642], [121.298618, 24.23621], [121.292865, 24.229752], [121.279959, 24.230225], [121.268764, 24.238258], [121.265032, 24.246133], [121.256635, 24.245031], [121.243885, 24.222979], [121.237354, 24.220302], [121.219472, 24.229752], [121.208121, 24.222349], [121.196771, 24.223767], [121.181843, 24.212584], [121.167538, 24.225972], [121.161007, 24.215891], [121.147946, 24.213686], [121.135662, 24.19699], [121.105341, 24.198093], [121.095701, 24.19258], [121.084505, 24.176671], [121.059471, 24.163756], [121.052318, 24.155565], [121.047342, 24.160763], [121.01982, 24.159818], [121.012201, 24.154305], [120.999606, 24.127843], [120.991987, 24.121071], [120.975194, 24.116818], [120.961355, 24.120125], [120.949693, 24.127843], [120.932589, 24.112565], [120.919683, 24.107367], [120.89496, 24.116503], [120.891384, 24.097759], [120.882054, 24.088308], [120.876923, 24.091144], [120.881432, 24.100594], [120.872414, 24.116818], [120.857486, 24.11729], [120.854065, 24.124378], [120.844891, 24.124536], [120.836339, 24.116975], [120.828565, 24.094451], [120.829342, 24.071455], [120.807107, 24.064367], [120.803686, 24.053341], [120.784716, 24.024044], [120.771499, 24.014436], [120.770566, 24.009081], [120.757816, 24.005931], [120.745998, 23.998528], [120.731693, 24.008923], [120.719254, 24.009554], [120.706503, 24.005143], [120.67867, 24.013964], [120.655813, 24.03066], [120.644617, 24.025935], [120.628135, 24.038378], [120.62347, 24.052081], [120.625492, 24.068777], [120.615385, 24.084056], [120.612586, 24.102484], [120.57278, 24.108312], [120.549767, 24.113825], [120.540904, 24.123748], [120.532663, 24.126268], [120.523644, 24.139499], [120.525821, 24.14895], [120.50794, 24.187225], [120.48586, 24.197463], [120.488503, 24.205653], [120.468289, 24.212584], [120.47653, 24.224239], [120.49068, 24.255111], [120.498299, 24.263932], [120.510583, 24.292599], [120.518824, 24.298584], [120.528154, 24.313863], [120.542459, 24.306145], [120.549767, 24.315438], [120.551633, 24.333709], [120.559252, 24.354028], [120.587085, 24.391987], [120.595171, 24.409471], [120.608077, 24.421599], [120.621138, 24.440973]]]}}, {"type": "Feature", "properties": {"COUNTYSN": "10011001", "COUNTYNAME": "臺南市", "name": "臺南市", "centroid": [120.3713, 23.1726]}, "geometry": {"type": "Polygon", "coordinates": [[[120.65348, 23.224524], [120.656279, 23.217909], [120.643218, 23.20326], [120.636532, 23.190345], [120.639953, 23.182627], [120.630623, 23.170026], [120.616629, 23.163095], [120.611808, 23.151597], [120.601079, 23.144194], [120.588485, 23.123403], [120.588174, 23.11411], [120.574024, 23.094579], [120.574801, 23.091428], [120.553188, 23.067959], [120.542459, 23.063392], [120.503741, 23.028582], [120.48275, 23.015666], [120.478396, 23.003538], [120.460359, 23.00338], [120.453206, 22.978651], [120.444965, 22.979596], [120.432992, 22.95597], [120.41651, 22.916277], [120.408735, 22.91234], [120.398628, 22.92242], [120.380591, 22.920058], [120.37235, 22.907772], [120.362554, 22.901944], [120.351048, 22.889028], [120.332389, 22.889186], [120.324148, 22.900369], [120.314507, 22.899739], [120.277966, 22.904464], [120.274079, 22.895171], [120.260085, 22.901787], [120.254021, 22.894384], [120.242825, 22.903519], [120.233185, 22.905409], [120.23163, 22.915332], [120.220123, 22.909662], [120.191979, 22.92116], [120.175031, 22.91171], [120.175652, 22.931871], [120.172232, 22.947464], [120.156527, 22.978494], [120.137868, 22.998183], [120.110812, 23.018186], [120.07707, 23.038348], [120.053747, 23.048113], [120.049704, 23.058194], [120.031667, 23.073315], [120.035243, 23.101194], [120.041307, 23.11411], [120.061677, 23.143564], [120.06914, 23.184674], [120.082357, 23.210033], [120.081735, 23.23492], [120.087488, 23.238228], [120.097906, 23.294774], [120.102882, 23.296191], [120.115788, 23.322968], [120.11812, 23.340137], [120.148441, 23.31966], [120.148597, 23.314462], [120.170988, 23.304539], [120.180628, 23.290993], [120.188403, 23.301232], [120.204263, 23.291939], [120.220745, 23.296034], [120.237849, 23.326906], [120.256353, 23.331001], [120.267082, 23.340609], [120.265683, 23.352265], [120.276256, 23.34817], [120.286052, 23.350217], [120.285897, 23.367071], [120.292894, 23.375419], [120.310931, 23.375419], [120.311086, 23.385657], [120.333633, 23.385972], [120.349493, 23.40125], [120.381058, 23.403456], [120.408114, 23.413379], [120.430504, 23.406606], [120.438279, 23.413379], [120.473265, 23.3981], [120.479484, 23.387547], [120.490058, 23.39558], [120.499232, 23.387862], [120.484305, 23.379357], [120.494256, 23.369433], [120.50483, 23.368961], [120.511982, 23.355258], [120.503586, 23.35132], [120.50794, 23.342972], [120.515559, 23.343759], [120.533751, 23.336514], [120.539971, 23.327851], [120.522556, 23.311785], [120.526132, 23.292411], [120.521778, 23.287843], [120.522089, 23.273825], [120.532041, 23.255396], [120.530486, 23.248938], [120.51898, 23.23933], [120.526288, 23.23114], [120.541526, 23.227832], [120.554743, 23.217594], [120.565316, 23.220902], [120.578378, 23.214916], [120.586619, 23.224209], [120.597192, 23.228935], [120.609787, 23.222634], [120.628291, 23.229407], [120.65348, 23.224524]]]}}, {"type": "Feature", "properties": {"COUNTYSN": "10017001", "COUNTYNAME": "基隆市", "name": "基隆市", "centroid": [121.7284, 25.1181]}, "geometry": {"type": "Polygon", "coordinates": [[[121.803191, 25.135749], [121.804901, 25.125038], [121.797748, 25.114328], [121.789818, 25.112438], [121.773025, 25.120156], [121.766805, 25.112438], [121.755921, 25.1085], [121.761674, 25.078416], [121.768516, 25.078416], [121.775668, 25.070068], [121.762296, 25.056994], [121.759186, 25.059514], [121.743326, 25.052426], [121.732131, 25.052741], [121.712383, 25.06802], [121.699322, 25.067547], [121.688437, 25.0718], [121.648942, 25.101885], [121.643189, 25.127716], [121.629506, 25.134017], [121.626862, 25.139529], [121.634481, 25.14394], [121.649409, 25.144885], [121.658272, 25.152288], [121.677553, 25.155753], [121.691703, 25.166464], [121.708962, 25.175442], [121.707252, 25.164888], [121.725133, 25.165046], [121.747835, 25.156383], [121.763229, 25.163786], [121.774891, 25.152445], [121.782355, 25.151028], [121.803191, 25.135749]]]}}, {"type": "Feature", "properties": {"COUNTYSN": "09007001", "COUNTYNAME": "連江縣", "name": "連江縣", "centroid": [119.9666, 26.1586]}, "geometry": {"type": "MultiPolygon", "coordinates": [[[[119.973046, 26.166494], [119.973046, 26.166336], [119.970403, 26.164131], [119.967759, 26.157043], [119.94739, 26.141922], [119.941326, 26.14397], [119.931374, 26.137039], [119.91427, 26.144127], [119.929197, 26.160823], [119.942414, 26.153735], [119.954542, 26.166336], [119.973046, 26.166494]]], [[[119.986885, 26.276751], [119.997769, 26.2736], [119.99155, 26.265252], [119.984397, 26.26793], [119.986885, 26.276751]]], [[[119.9774, 26.198783], [119.971025, 26.201303], [119.976778, 26.219417], [119.988595, 26.223827], [120.000879, 26.236901], [120.011764, 26.232805], [120.012075, 26.220992], [119.992483, 26.217212], [119.978177, 26.209651], [119.9774, 26.198783]]], [[[119.93495, 25.969606], [119.931685, 25.980317], [119.950033, 25.981105], [119.954076, 25.977797], [119.940704, 25.966614], [119.93495, 25.969606]]]]}}, {"type": "Feature", "properties": {"COUNTYSN": "10008001", "COUNTYNAME": "南投縣", "name": "南投縣", "centroid": [120.9909, 23.8545]}, "geometry": {"type": "Polygon", "coordinates": [[[121.342622, 24.224082], [121.349153, 24.210851], [121.349464, 24.201086], [121.325207, 24.195888], [121.315722, 24.185177], [121.305926, 24.180137], [121.286334, 24.177459], [121.288356, 24.157613], [121.281358, 24.135561], [121.295353, 24.132569], [121.316189, 24.116503], [121.328473, 24.114298], [121.325829, 24.102642], [121.318988, 24.095239], [121.323186, 24.084843], [121.308103, 24.073345], [121.299085, 24.061689], [121.295664, 24.063894], [121.283069, 24.053971], [121.285557, 24.039323], [121.276538, 24.024359], [121.270007, 24.006718], [121.260989, 23.994118], [121.264876, 23.975374], [121.273739, 23.975059], [121.277938, 23.965766], [121.272029, 23.938202], [121.276383, 23.922608], [121.276072, 23.909692], [121.261144, 23.902604], [121.268297, 23.883388], [121.265187, 23.872835], [121.253059, 23.867952], [121.24886, 23.852201], [121.239375, 23.840388], [121.234555, 23.812036], [121.227403, 23.808256], [121.228335, 23.785259], [121.204701, 23.772344], [121.206411, 23.762578], [121.228802, 23.744622], [121.241086, 23.709182], [121.239375, 23.686816], [121.232378, 23.67705], [121.235799, 23.662717], [121.223982, 23.638618], [121.224915, 23.62712], [121.217296, 23.614676], [121.213564, 23.600658], [121.206722, 23.595933], [121.194127, 23.6005], [121.179822, 23.590105], [121.179044, 23.583489], [121.153544, 23.586797], [121.151833, 23.574196], [121.160541, 23.569628], [121.15712, 23.559548], [121.146236, 23.554665], [121.151056, 23.545372], [121.147013, 23.527258], [121.135507, 23.515288], [121.120268, 23.520958], [121.103631, 23.51891], [121.097411, 23.521745], [121.091969, 23.514657], [121.068489, 23.518438], [121.062114, 23.499379], [121.052629, 23.493709], [121.053562, 23.487723], [121.039101, 23.474177], [121.059004, 23.461892], [121.051541, 23.450708], [121.034592, 23.445668], [121.015156, 23.435273], [121.010335, 23.445826], [121.015777, 23.451654], [121.007692, 23.462679], [120.999917, 23.462207], [120.970685, 23.46898], [120.957623, 23.469452], [120.947361, 23.46709], [120.937254, 23.473075], [120.931501, 23.470712], [120.917662, 23.475595], [120.887185, 23.475595], [120.880499, 23.467562], [120.863395, 23.473547], [120.839449, 23.471185], [120.827165, 23.483156], [120.820324, 23.52143], [120.808662, 23.535921], [120.814104, 23.55624], [120.820635, 23.562383], [120.819546, 23.574984], [120.825455, 23.586324], [120.813793, 23.600973], [120.803686, 23.59672], [120.777408, 23.602548], [120.763258, 23.612471], [120.754706, 23.614519], [120.730916, 23.610739], [120.730605, 23.618457], [120.718476, 23.629955], [120.714278, 23.621607], [120.705104, 23.617039], [120.691421, 23.620189], [120.68349, 23.610739], [120.661411, 23.610266], [120.65177, 23.616251], [120.653014, 23.629482], [120.644928, 23.631057], [120.633888, 23.619244], [120.629068, 23.635153], [120.634977, 23.642713], [120.634977, 23.651849], [120.64695, 23.672955], [120.647883, 23.683193], [120.639175, 23.7106], [120.640264, 23.730919], [120.655813, 23.735486], [120.655502, 23.75549], [120.640419, 23.786047], [120.666542, 23.793607], [120.678981, 23.805893], [120.674472, 23.820069], [120.651925, 23.812509], [120.636532, 23.824794], [120.626425, 23.84086], [120.618806, 23.841806], [120.626736, 23.858344], [120.62005, 23.865589], [120.634977, 23.898667], [120.632022, 23.903392], [120.637154, 23.924498], [120.629379, 23.929696], [120.636532, 23.937572], [120.627358, 23.952062], [120.635288, 23.952377], [120.646794, 23.963403], [120.649749, 23.985297], [120.637465, 23.993645], [120.642285, 24.008923], [120.672606, 24.005773], [120.67867, 24.013964], [120.706503, 24.005143], [120.719254, 24.009554], [120.731693, 24.008923], [120.745998, 23.998528], [120.757816, 24.005931], [120.770566, 24.009081], [120.771499, 24.014436], [120.784716, 24.024044], [120.803686, 24.053341], [120.807107, 24.064367], [120.829342, 24.071455], [120.828565, 24.094451], [120.836339, 24.116975], [120.844891, 24.124536], [120.854065, 24.124378], [120.857486, 24.11729], [120.872414, 24.116818], [120.881432, 24.100594], [120.876923, 24.091144], [120.882054, 24.088308], [120.891384, 24.097759], [120.89496, 24.116503], [120.919683, 24.107367], [120.932589, 24.112565], [120.949693, 24.127843], [120.961355, 24.120125], [120.975194, 24.116818], [120.991987, 24.121071], [120.999606, 24.127843], [121.012201, 24.154305], [121.01982, 24.159818], [121.047342, 24.160763], [121.052318, 24.155565], [121.059471, 24.163756], [121.084505, 24.176671], [121.095701, 24.19258], [121.105341, 24.198093], [121.135662, 24.19699], [121.147946, 24.213686], [121.161007, 24.215891], [121.167538, 24.225972], [121.181843, 24.212584], [121.196771, 24.223767], [121.208121, 24.222349], [121.219472, 24.229752], [121.237354, 24.220302], [121.243885, 24.222979], [121.256635, 24.245031], [121.265032, 24.246133], [121.268764, 24.238258], [121.279959, 24.230225], [121.292865, 24.229752], [121.298618, 24.23621], [121.329872, 24.231642], [121.342622, 24.224082]]]}}, {"type": "Feature", "properties": {"COUNTYSN": "10016001", "COUNTYNAME": "澎湖縣", "name": "澎湖縣", "centroid": [119.5549, 23.5336]}, "geometry": {"type": "MultiPolygon", "coordinates": [[[[119.420115, 23.203891], [119.410008, 23.213656], [119.439863, 23.221374], [119.443906, 23.214444], [119.442817, 23.200268], [119.435665, 23.201685], [119.422137, 23.19255], [119.420115, 23.203891]]], [[[119.60624, 23.751395], [119.611526, 23.753915], [119.623655, 23.743677], [119.611682, 23.741944], [119.603285, 23.731864], [119.595822, 23.737534], [119.60624, 23.751395]]], [[[119.665482, 23.258546], [119.679477, 23.262957], [119.672168, 23.244371], [119.665016, 23.250671], [119.665482, 23.258546]]], [[[119.492419, 23.381404], [119.498017, 23.392115], [119.507968, 23.390697], [119.507813, 23.364866], [119.504859, 23.355415], [119.4862, 23.356045], [119.494596, 23.365338], [119.492419, 23.381404]]], [[[119.315158, 23.400463], [119.319045, 23.411646], [119.328997, 23.407078], [119.327753, 23.400778], [119.315158, 23.400463]]], [[[119.523518, 23.365968], [119.537512, 23.374159], [119.540155, 23.366283], [119.523518, 23.365968]]], [[[119.580894, 23.661614], [119.571409, 23.662402], [119.564257, 23.652794], [119.553994, 23.657046], [119.540777, 23.640508], [119.540155, 23.63405], [119.517454, 23.626805], [119.521185, 23.620662], [119.523051, 23.60176], [119.512633, 23.592467], [119.515121, 23.564116], [119.497861, 23.568211], [119.489776, 23.562698], [119.468007, 23.563486], [119.483401, 23.575456], [119.491797, 23.569786], [119.503304, 23.579079], [119.503459, 23.589002], [119.491642, 23.598138], [119.502215, 23.603651], [119.50859, 23.613259], [119.500038, 23.618614], [119.502215, 23.6309], [119.511545, 23.647596], [119.531137, 23.63909], [119.540311, 23.640508], [119.55415, 23.657519], [119.555238, 23.668545], [119.57001, 23.671065], [119.582294, 23.677523], [119.592401, 23.671537], [119.597843, 23.67453], [119.608572, 23.662874], [119.611993, 23.650116], [119.600797, 23.647911], [119.602352, 23.62838], [119.613081, 23.620347], [119.612304, 23.602706], [119.632984, 23.595303], [119.646668, 23.60113], [119.654598, 23.599555], [119.661128, 23.590262], [119.680565, 23.585222], [119.683053, 23.565691], [119.692382, 23.561438], [119.693471, 23.555138], [119.678077, 23.551357], [119.674656, 23.561123], [119.646357, 23.560493], [119.631429, 23.547735], [119.615725, 23.538914], [119.605929, 23.529306], [119.60624, 23.507885], [119.597066, 23.512767], [119.571876, 23.508672], [119.574053, 23.519855], [119.60313, 23.540332], [119.599553, 23.54994], [119.591779, 23.553247], [119.572964, 23.546317], [119.579806, 23.563328], [119.567367, 23.574984], [119.56208, 23.585379], [119.574364, 23.584907], [119.585559, 23.573724], [119.597221, 23.568998], [119.598465, 23.582859], [119.606551, 23.585222], [119.602974, 23.600658], [119.604996, 23.609321], [119.597221, 23.615936], [119.599398, 23.622237], [119.589135, 23.625229], [119.595822, 23.634523], [119.5938, 23.64161], [119.582449, 23.652636], [119.580894, 23.661614]]]]}}, {"type": "Feature", "properties": {"COUNTYSN": "10005001", "COUNTYNAME": "苗栗縣", "name": "苗栗縣", "centroid": [120.9829, 24.4875]}, "geometry": {"type": "Polygon", "coordinates": [[[121.259434, 24.42916], [121.244973, 24.422544], [121.242796, 24.405848], [121.234089, 24.397343], [121.231601, 24.384427], [121.21543, 24.379544], [121.206878, 24.397815], [121.196615, 24.396555], [121.189618, 24.381592], [121.172825, 24.373086], [121.167693, 24.360801], [121.140793, 24.35954], [121.124778, 24.341742], [121.121046, 24.330559], [121.108451, 24.330874], [121.09399, 24.31969], [121.08606, 24.317643], [121.08124, 24.324101], [121.055117, 24.310082], [121.052007, 24.299529], [121.045166, 24.295276], [121.034281, 24.297639], [121.017488, 24.311815], [121.004738, 24.331819], [120.991676, 24.329614], [120.982036, 24.335914], [120.972084, 24.333394], [120.95669, 24.339222], [120.942541, 24.339064], [120.935699, 24.342844], [120.916262, 24.334654], [120.92186, 24.302364], [120.904445, 24.292284], [120.874746, 24.294804], [120.857486, 24.289134], [120.83323, 24.290709], [120.817525, 24.307562], [120.806329, 24.315753], [120.783938, 24.318273], [120.762791, 24.326148], [120.730605, 24.351665], [120.707281, 24.357808], [120.69282, 24.367101], [120.68971, 24.374504], [120.677271, 24.384112], [120.658145, 24.406636], [120.648194, 24.409944], [120.639642, 24.427742], [120.621138, 24.440973], [120.632489, 24.447904], [120.666542, 24.484446], [120.671673, 24.500039], [120.687067, 24.523036], [120.696863, 24.550127], [120.706037, 24.568084], [120.711168, 24.585882], [120.726251, 24.608249], [120.737135, 24.611871], [120.759215, 24.614076], [120.761703, 24.639593], [120.780207, 24.661014], [120.816281, 24.669047], [120.82872, 24.66952], [120.833696, 24.680546], [120.858575, 24.700392], [120.865416, 24.723861], [120.878478, 24.735202], [120.891073, 24.731736], [120.905844, 24.740714], [120.915951, 24.720553], [120.935388, 24.712678], [120.939897, 24.708267], [120.949849, 24.711103], [120.955135, 24.704487], [120.971773, 24.71252], [120.97395, 24.696927], [120.965864, 24.684956], [120.976438, 24.683223], [120.977215, 24.674245], [120.997118, 24.654556], [121.010335, 24.656289], [121.008158, 24.644318], [121.025263, 24.641168], [121.029461, 24.63282], [121.043144, 24.627307], [121.053251, 24.615494], [121.062581, 24.621794], [121.073776, 24.613289], [121.08124, 24.600531], [121.083106, 24.590135], [121.075487, 24.580999], [121.070511, 24.563358], [121.062736, 24.55753], [121.080462, 24.541149], [121.078285, 24.528706], [121.066934, 24.522878], [121.07191, 24.498307], [121.086371, 24.500984], [121.098499, 24.496574], [121.123689, 24.51012], [121.136906, 24.506655], [121.144992, 24.511853], [121.150278, 24.50634], [121.169093, 24.502559], [121.177956, 24.5076], [121.186664, 24.505395], [121.200813, 24.511537], [121.223515, 24.506025], [121.218695, 24.498307], [121.234555, 24.487753], [121.244351, 24.470112], [121.258035, 24.463339], [121.262544, 24.455306], [121.25819, 24.440973], [121.259434, 24.42916]]]}}, {"type": "Feature", "properties": {"COUNTYSN": "10020001", "COUNTYNAME": "嘉義市", "name": "嘉義市", "centroid": [120.4518, 23.4837]}, "geometry": {"type": "Polygon", "coordinates": [[[120.428638, 23.509145], [120.435014, 23.517178], [120.44792, 23.518123], [120.456005, 23.512137], [120.464246, 23.499222], [120.473576, 23.50694], [120.483216, 23.505364], [120.487726, 23.491976], [120.501253, 23.489771], [120.509339, 23.474807], [120.495189, 23.452914], [120.489591, 23.452284], [120.476841, 23.462049], [120.468756, 23.461577], [120.452895, 23.444881], [120.439678, 23.439525], [120.42926, 23.461104], [120.415111, 23.460317], [120.39925, 23.471027], [120.393653, 23.482525], [120.403915, 23.503789], [120.412156, 23.499064], [120.428638, 23.509145]]]}}, {"type": "Feature", "properties": {"COUNTYSN": "10004001", "COUNTYNAME": "新竹縣", "name": "新竹縣", "centroid": [121.1463, 24.6904]}, "geometry": {"type": "Polygon", "coordinates": [[[120.986078, 24.939492], [121.003027, 24.940122], [121.00707, 24.946265], [121.019354, 24.940437], [121.037857, 24.946422], [121.046254, 24.943587], [121.057605, 24.933034], [121.06087, 24.920276], [121.059004, 24.907045], [121.070977, 24.899484], [121.083572, 24.898854], [121.091036, 24.893499], [121.109073, 24.897752], [121.108451, 24.886096], [121.113582, 24.882473], [121.135662, 24.878063], [121.138927, 24.882316], [121.155721, 24.880583], [121.161318, 24.859634], [121.151989, 24.843883], [121.176246, 24.831913], [121.173758, 24.82766], [121.19646, 24.817894], [121.203301, 24.817264], [121.2075, 24.807026], [121.21714, 24.812381], [121.221494, 24.799466], [121.245284, 24.807026], [121.247306, 24.797418], [121.261144, 24.790015], [121.260211, 24.781824], [121.27716, 24.770956], [121.301417, 24.763081], [121.307637, 24.755048], [121.298618, 24.730791], [121.307637, 24.719923], [121.299551, 24.696612], [121.303905, 24.692831], [121.318055, 24.698029], [121.329561, 24.691099], [121.338735, 24.679601], [121.339823, 24.670465], [121.353507, 24.66637], [121.352263, 24.644791], [121.358172, 24.633608], [121.36548, 24.630772], [121.358794, 24.617384], [121.363458, 24.602893], [121.372477, 24.594073], [121.38756, 24.586512], [121.402953, 24.59171], [121.412127, 24.572966], [121.403886, 24.568871], [121.394868, 24.556113], [121.396734, 24.539732], [121.401709, 24.529336], [121.390514, 24.522878], [121.383517, 24.51012], [121.373254, 24.50949], [121.371233, 24.498307], [121.357239, 24.486336], [121.345421, 24.484131], [121.336247, 24.46775], [121.323963, 24.456882], [121.316811, 24.441761], [121.304527, 24.432783], [121.268608, 24.427585], [121.259434, 24.42916], [121.25819, 24.440973], [121.262544, 24.455306], [121.258035, 24.463339], [121.244351, 24.470112], [121.234555, 24.487753], [121.218695, 24.498307], [121.223515, 24.506025], [121.200813, 24.511537], [121.186664, 24.505395], [121.177956, 24.5076], [121.169093, 24.502559], [121.150278, 24.50634], [121.144992, 24.511853], [121.136906, 24.506655], [121.123689, 24.51012], [121.098499, 24.496574], [121.086371, 24.500984], [121.07191, 24.498307], [121.066934, 24.522878], [121.078285, 24.528706], [121.080462, 24.541149], [121.062736, 24.55753], [121.070511, 24.563358], [121.075487, 24.580999], [121.083106, 24.590135], [121.08124, 24.600531], [121.073776, 24.613289], [121.062581, 24.621794], [121.053251, 24.615494], [121.043144, 24.627307], [121.029461, 24.63282], [121.025263, 24.641168], [121.008158, 24.644318], [121.010335, 24.656289], [120.997118, 24.654556], [120.977215, 24.674245], [120.976438, 24.683223], [120.965864, 24.684956], [120.97395, 24.696927], [120.971773, 24.71252], [120.955135, 24.704487], [120.949849, 24.711103], [120.939897, 24.708267], [120.935388, 24.712678], [120.938031, 24.729531], [120.946117, 24.745282], [120.953892, 24.743392], [120.967419, 24.756465], [120.969752, 24.765128], [120.979548, 24.763238], [120.987167, 24.768436], [120.985767, 24.776942], [120.993076, 24.780564], [121.013601, 24.770956], [121.019976, 24.757095], [121.032726, 24.762136], [121.027439, 24.782769], [121.020598, 24.793953], [121.01811, 24.807341], [121.000228, 24.822147], [120.955291, 24.834275], [120.933678, 24.852704], [120.933989, 24.862469], [120.94565, 24.874913], [120.952803, 24.892081], [120.960111, 24.900587], [120.965553, 24.916495], [120.980792, 24.939177], [120.986078, 24.939492]]]}}, {"type": "Feature", "properties": {"COUNTYSN": "10001001", "COUNTYNAME": "新北市", "name": "新北市", "centroid": [121.5937, 25.0194]}, "geometry": {"type": "Polygon", "coordinates": [[[121.479922, 24.673773], [121.47308, 24.689996], [121.474169, 24.695982], [121.450068, 24.705905], [121.434985, 24.734099], [121.423323, 24.761821], [121.4255, 24.767019], [121.449446, 24.786077], [121.438561, 24.795055], [121.436384, 24.812224], [121.423789, 24.825297], [121.416948, 24.825455], [121.415548, 24.835535], [121.402953, 24.843411], [121.393313, 24.843883], [121.372943, 24.834905], [121.346821, 24.845773], [121.353507, 24.858532], [121.345888, 24.86814], [121.35444, 24.87318], [121.345732, 24.879953], [121.342156, 24.892554], [121.333448, 24.891609], [121.320387, 24.900272], [121.32614, 24.909092], [121.317588, 24.916338], [121.324585, 24.923426], [121.315722, 24.938547], [121.331582, 24.945792], [121.328006, 24.9491], [121.329561, 24.966899], [121.327229, 24.978397], [121.342622, 24.982335], [121.353973, 24.977767], [121.368745, 24.976822], [121.401554, 24.999188], [121.397045, 25.016199], [121.411661, 25.018247], [121.398289, 25.03006], [121.398133, 25.051166], [121.387404, 25.055104], [121.388959, 25.060617], [121.376831, 25.06613], [121.354906, 25.065185], [121.346199, 25.083613], [121.339046, 25.083613], [121.324896, 25.092591], [121.302661, 25.096844], [121.297996, 25.104562], [121.291621, 25.102672], [121.282758, 25.110075], [121.283535, 25.11732], [121.304838, 25.126141], [121.31028, 25.123306], [121.332826, 25.124723], [121.350086, 25.129921], [121.386471, 25.145357], [121.400465, 25.154965], [121.412749, 25.168039], [121.406374, 25.173867], [121.408862, 25.1882], [121.417725, 25.194343], [121.433274, 25.216079], [121.439339, 25.218914], [121.44758, 25.246006], [121.47308, 25.254354], [121.479145, 25.268057], [121.512731, 25.285699], [121.527192, 25.285699], [121.540409, 25.294992], [121.560467, 25.291999], [121.568086, 25.297827], [121.578971, 25.298142], [121.599029, 25.288849], [121.606493, 25.281446], [121.617533, 25.277666], [121.633082, 25.259867], [121.63417, 25.239548], [121.642878, 25.230885], [121.650808, 25.230885], [121.653607, 25.216079], [121.671178, 25.202533], [121.693413, 25.208046], [121.694968, 25.202848], [121.685794, 25.189618], [121.692636, 25.180167], [121.708962, 25.175442], [121.691703, 25.166464], [121.677553, 25.155753], [121.658272, 25.152288], [121.649409, 25.144885], [121.634481, 25.14394], [121.626862, 25.139529], [121.629506, 25.134017], [121.643189, 25.127716], [121.648942, 25.101885], [121.688437, 25.0718], [121.699322, 25.067547], [121.712383, 25.06802], [121.732131, 25.052741], [121.743326, 25.052426], [121.759186, 25.059514], [121.762296, 25.056994], [121.775668, 25.070068], [121.768516, 25.078416], [121.761674, 25.078416], [121.755921, 25.1085], [121.766805, 25.112438], [121.773025, 25.120156], [121.789818, 25.112438], [121.797748, 25.114328], [121.804901, 25.125038], [121.803191, 25.135749], [121.821228, 25.134174], [121.819673, 25.122676], [121.825582, 25.121258], [121.841753, 25.128819], [121.868031, 25.122361], [121.906282, 25.121573], [121.917477, 25.117005], [121.923231, 25.105192], [121.91359, 25.085346], [121.925252, 25.067232], [121.930694, 25.064082], [121.92774, 25.046126], [121.932094, 25.032738], [121.945155, 25.021082], [121.978741, 25.02565], [121.996468, 25.018562], [122.006575, 25.010686], [122.004864, 25.002968], [121.996001, 25.001866], [121.984184, 24.991943], [121.965991, 24.983122], [121.963037, 24.987532], [121.944067, 24.988005], [121.94049, 24.984382], [121.902861, 24.974459], [121.888556, 24.963276], [121.871763, 24.960756], [121.861034, 24.963591], [121.847195, 24.960283], [121.841442, 24.954455], [121.839887, 24.942169], [121.85357, 24.925158], [121.83149, 24.90484], [121.818273, 24.902792], [121.811587, 24.906572], [121.781733, 24.889404], [121.783132, 24.874125], [121.775513, 24.865147], [121.769293, 24.865777], [121.761052, 24.856957], [121.742082, 24.852389], [121.730576, 24.855224], [121.68766, 24.824825], [121.688282, 24.816162], [121.676775, 24.814114], [121.669156, 24.817894], [121.66076, 24.810964], [121.647232, 24.813956], [121.645832, 24.809704], [121.625929, 24.808759], [121.625774, 24.79537], [121.609603, 24.793795], [121.593431, 24.787337], [121.597474, 24.772531], [121.588922, 24.755048], [121.596075, 24.748117], [121.594209, 24.729216], [121.587056, 24.720081], [121.579437, 24.722443], [121.570574, 24.713938], [121.543207, 24.70559], [121.536366, 24.688264], [121.523771, 24.683223], [121.511798, 24.684326], [121.492517, 24.673143], [121.479922, 24.673773]], [[121.559223, 25.210094], [121.543207, 25.193713], [121.542741, 25.18883], [121.52175, 25.179064], [121.519884, 25.169299], [121.502779, 25.173394], [121.487386, 25.151343], [121.482876, 25.15024], [121.459242, 25.122046], [121.457065, 25.10913], [121.466083, 25.101727], [121.488785, 25.097159], [121.502468, 25.083141], [121.506978, 25.07117], [121.503246, 25.048331], [121.487541, 25.036045], [121.488941, 25.013994], [121.493139, 25.009269], [121.510399, 25.021712], [121.519728, 25.019192], [121.530613, 25.009741], [121.536988, 24.992258], [121.553003, 24.980444], [121.561245, 24.964693], [121.574772, 24.966899], [121.596852, 24.960598], [121.619554, 24.967214], [121.611469, 24.974617], [121.600118, 24.976979], [121.601984, 24.990368], [121.595919, 25.004386], [121.59763, 25.014782], [121.604005, 25.019034], [121.623441, 25.017302], [121.63246, 25.02565], [121.66418, 25.023287], [121.665113, 25.029587], [121.650186, 25.027697], [121.622198, 25.039983], [121.616444, 25.048174], [121.621887, 25.059829], [121.616133, 25.063925], [121.628573, 25.086291], [121.62624, 25.095742], [121.6152, 25.103932], [121.597474, 25.109445], [121.595608, 25.113225], [121.603538, 25.137009], [121.595764, 25.143625], [121.587989, 25.162998], [121.577105, 25.166936], [121.58348, 25.177017], [121.583013, 25.194973], [121.572906, 25.194973], [121.559223, 25.210094]]]}}, {"type": "Feature", "properties": {"COUNTYSN": "10015001", "COUNTYNAME": "花蓮縣", "name": "花蓮縣", "centroid": [121.3578, 23.746]}, "geometry": {"type": "Polygon", "coordinates": [[[121.028372, 23.297136], [121.032415, 23.303909], [121.046409, 23.309107], [121.048742, 23.325331], [121.024641, 23.339979], [121.019976, 23.350375], [121.009869, 23.345964], [121.00085, 23.356203], [120.987167, 23.358723], [120.9881, 23.370693], [121.007692, 23.386602], [121.001161, 23.391957], [121.015, 23.396683], [121.026662, 23.405976], [121.02915, 23.422829], [121.015156, 23.435273], [121.034592, 23.445668], [121.051541, 23.450708], [121.059004, 23.461892], [121.039101, 23.474177], [121.053562, 23.487723], [121.052629, 23.493709], [121.062114, 23.499379], [121.068489, 23.518438], [121.091969, 23.514657], [121.097411, 23.521745], [121.103631, 23.51891], [121.120268, 23.520958], [121.135507, 23.515288], [121.147013, 23.527258], [121.151056, 23.545372], [121.146236, 23.554665], [121.15712, 23.559548], [121.160541, 23.569628], [121.151833, 23.574196], [121.153544, 23.586797], [121.179044, 23.583489], [121.179822, 23.590105], [121.194127, 23.6005], [121.206722, 23.595933], [121.213564, 23.600658], [121.217296, 23.614676], [121.224915, 23.62712], [121.223982, 23.638618], [121.235799, 23.662717], [121.232378, 23.67705], [121.239375, 23.686816], [121.241086, 23.709182], [121.228802, 23.744622], [121.206411, 23.762578], [121.204701, 23.772344], [121.228335, 23.785259], [121.227403, 23.808256], [121.234555, 23.812036], [121.239375, 23.840388], [121.24886, 23.852201], [121.253059, 23.867952], [121.265187, 23.872835], [121.268297, 23.883388], [121.261144, 23.902604], [121.276072, 23.909692], [121.276383, 23.922608], [121.272029, 23.938202], [121.277938, 23.965766], [121.273739, 23.975059], [121.264876, 23.975374], [121.260989, 23.994118], [121.270007, 24.006718], [121.276538, 24.024359], [121.285557, 24.039323], [121.283069, 24.053971], [121.295664, 24.063894], [121.299085, 24.061689], [121.308103, 24.073345], [121.323186, 24.084843], [121.318988, 24.095239], [121.325829, 24.102642], [121.328473, 24.114298], [121.316189, 24.116503], [121.295353, 24.132569], [121.281358, 24.135561], [121.288356, 24.157613], [121.286334, 24.177459], [121.305926, 24.180137], [121.315722, 24.185177], [121.325207, 24.195888], [121.349464, 24.201086], [121.349153, 24.210851], [121.342622, 24.224082], [121.351952, 24.23495], [121.352107, 24.244243], [121.366257, 24.252434], [121.38445, 24.255426], [121.385227, 24.26472], [121.379941, 24.27984], [121.390358, 24.290236], [121.401865, 24.296221], [121.404664, 24.308822], [121.422701, 24.30898], [121.434207, 24.322998], [121.431719, 24.330086], [121.434674, 24.3482], [121.441049, 24.35954], [121.451001, 24.365368], [121.46515, 24.355445], [121.485675, 24.348515], [121.49827, 24.339222], [121.52517, 24.342529], [121.539476, 24.335914], [121.54414, 24.337804], [121.55658, 24.330401], [121.559845, 24.322841], [121.601362, 24.314493], [121.60416, 24.328984], [121.620176, 24.345365], [121.621576, 24.366471], [121.630905, 24.370566], [121.648631, 24.349617], [121.664025, 24.349145], [121.675998, 24.337489], [121.686105, 24.340324], [121.688593, 24.333551], [121.697611, 24.334181], [121.713627, 24.326936], [121.74457, 24.322841], [121.759186, 24.314178], [121.773492, 24.314493], [121.769293, 24.302994], [121.756854, 24.291654], [121.747058, 24.277005], [121.744415, 24.262357], [121.728243, 24.245818], [121.71767, 24.243141], [121.705697, 24.225657], [121.674598, 24.208173], [121.663714, 24.1951], [121.658738, 24.179034], [121.660449, 24.162338], [121.666513, 24.148792], [121.663092, 24.134459], [121.653141, 24.12044], [121.633082, 24.107367], [121.617688, 24.084528], [121.615511, 24.070825], [121.620954, 24.047513], [121.628728, 24.03255], [121.643034, 24.019319], [121.647232, 24.008451], [121.642567, 23.999315], [121.635414, 24.001678], [121.634481, 23.988762], [121.61971, 23.978524], [121.605871, 23.955213], [121.611313, 23.933949], [121.605249, 23.915835], [121.603383, 23.886223], [121.597941, 23.860549], [121.587056, 23.829362], [121.573062, 23.802901], [121.570108, 23.780849], [121.572906, 23.760373], [121.560001, 23.729501], [121.553159, 23.724461], [121.548805, 23.71249], [121.553159, 23.698472], [121.546006, 23.677208], [121.541964, 23.652794], [121.536832, 23.650589], [121.530302, 23.627277], [121.52968, 23.596878], [121.526103, 23.577819], [121.511332, 23.553562], [121.502935, 23.51702], [121.506511, 23.491661], [121.513353, 23.482998], [121.502624, 23.466459], [121.495782, 23.434642], [121.480389, 23.430705], [121.473236, 23.440628], [121.46204, 23.439525], [121.447424, 23.443778], [121.440894, 23.433855], [121.433274, 23.432752], [121.419591, 23.419364], [121.410417, 23.39873], [121.399999, 23.385342], [121.407463, 23.364551], [121.422701, 23.36014], [121.422234, 23.355258], [121.410106, 23.346122], [121.402176, 23.333994], [121.399844, 23.323125], [121.390203, 23.320605], [121.387871, 23.310682], [121.37652, 23.295876], [121.377919, 23.269572], [121.359416, 23.252561], [121.361592, 23.246891], [121.352574, 23.231297], [121.356461, 23.223264], [121.34651, 23.216964], [121.346976, 23.209246], [121.334692, 23.177901], [121.323808, 23.178374], [121.317433, 23.164356], [121.327229, 23.152227], [121.320387, 23.137736], [121.322564, 23.120095], [121.316033, 23.110645], [121.302816, 23.11096], [121.284468, 23.106549], [121.27234, 23.097886], [121.264254, 23.103872], [121.267053, 23.114267], [121.249171, 23.131593], [121.238443, 23.128758], [121.230823, 23.139311], [121.212009, 23.144194], [121.212475, 23.154747], [121.199258, 23.175224], [121.19817, 23.188612], [121.191017, 23.202315], [121.175935, 23.210033], [121.161629, 23.206253], [121.156032, 23.20011], [121.13986, 23.201528], [121.129287, 23.223264], [121.108606, 23.223422], [121.09228, 23.233817], [121.079529, 23.232715], [121.062425, 23.265949], [121.062114, 23.279023], [121.056361, 23.290206], [121.038946, 23.300602], [121.028372, 23.297136]]]}}, {"type": "Feature", "properties": {"COUNTYSN": "10012001", "COUNTYNAME": "高雄市", "name": "高雄市", "centroid": [120.6621, 23.0211]}, "geometry": {"type": "Polygon", "coordinates": [[[120.424129, 22.476982], [120.413089, 22.475565], [120.399872, 22.480605], [120.37235, 22.498246], [120.337986, 22.52518], [120.314663, 22.547232], [120.31684, 22.551327], [120.303467, 22.564243], [120.262262, 22.614016], [120.26335, 22.623939], [120.251533, 22.645203], [120.253243, 22.665364], [120.274546, 22.683793], [120.268637, 22.708837], [120.261795, 22.700016], [120.256353, 22.717185], [120.234429, 22.760185], [120.212193, 22.807596], [120.193068, 22.859889], [120.191668, 22.869812], [120.175031, 22.91171], [120.191979, 22.92116], [120.220123, 22.909662], [120.23163, 22.915332], [120.233185, 22.905409], [120.242825, 22.903519], [120.254021, 22.894384], [120.260085, 22.901787], [120.274079, 22.895171], [120.277966, 22.904464], [120.314507, 22.899739], [120.324148, 22.900369], [120.332389, 22.889186], [120.351048, 22.889028], [120.362554, 22.901944], [120.37235, 22.907772], [120.380591, 22.920058], [120.398628, 22.92242], [120.408735, 22.91234], [120.41651, 22.916277], [120.432992, 22.95597], [120.444965, 22.979596], [120.453206, 22.978651], [120.460359, 23.00338], [120.478396, 23.003538], [120.48275, 23.015666], [120.503741, 23.028582], [120.542459, 23.063392], [120.553188, 23.067959], [120.574801, 23.091428], [120.574024, 23.094579], [120.588174, 23.11411], [120.588485, 23.123403], [120.601079, 23.144194], [120.611808, 23.151597], [120.616629, 23.163095], [120.630623, 23.170026], [120.639953, 23.182627], [120.636532, 23.190345], [120.643218, 23.20326], [120.656279, 23.217909], [120.65348, 23.224524], [120.648505, 23.248938], [120.642129, 23.256656], [120.643995, 23.281543], [120.642129, 23.293041], [120.65799, 23.295876], [120.671362, 23.289891], [120.693597, 23.284536], [120.703549, 23.289103], [120.703704, 23.300287], [120.712101, 23.308635], [120.730605, 23.305642], [120.730294, 23.310997], [120.740401, 23.320448], [120.748175, 23.322023], [120.758749, 23.336514], [120.759682, 23.344232], [120.783161, 23.342184], [120.788603, 23.352895], [120.804774, 23.367228], [120.82872, 23.375261], [120.830742, 23.386287], [120.849401, 23.412119], [120.849556, 23.420152], [120.864483, 23.423932], [120.885941, 23.4348], [120.900402, 23.454016], [120.912997, 23.458584], [120.926991, 23.455906], [120.936632, 23.463782], [120.948294, 23.464097], [120.957623, 23.469452], [120.970685, 23.46898], [120.999917, 23.462207], [121.007692, 23.462679], [121.015777, 23.451654], [121.010335, 23.445826], [121.015156, 23.435273], [121.02915, 23.422829], [121.026662, 23.405976], [121.015, 23.396683], [121.001161, 23.391957], [121.007692, 23.386602], [120.9881, 23.370693], [120.987167, 23.358723], [121.00085, 23.356203], [121.009869, 23.345964], [121.019976, 23.350375], [121.024641, 23.339979], [121.048742, 23.325331], [121.046409, 23.309107], [121.032415, 23.303909], [121.028372, 23.297136], [121.010646, 23.292726], [120.986078, 23.280283], [120.970996, 23.281228], [120.938031, 23.245158], [120.926214, 23.244528], [120.915796, 23.23807], [120.911753, 23.228305], [120.911598, 23.209246], [120.906622, 23.196488], [120.912531, 23.186722], [120.909265, 23.179792], [120.898381, 23.176169], [120.89496, 23.160733], [120.876456, 23.151282], [120.88563, 23.144509], [120.887963, 23.136634], [120.885008, 23.119938], [120.889362, 23.110015], [120.88563, 23.088908], [120.869148, 23.059769], [120.881277, 23.044018], [120.879566, 23.034725], [120.861063, 23.029685], [120.860596, 23.007948], [120.850956, 23.004956], [120.851889, 22.999285], [120.841937, 22.991095], [120.841626, 22.984794], [120.832297, 22.980069], [120.83012, 22.969988], [120.820946, 22.960853], [120.824522, 22.951717], [120.821879, 22.935179], [120.83323, 22.91234], [120.828565, 22.904149], [120.841937, 22.881153], [120.859819, 22.87816], [120.86495, 22.87249], [120.859197, 22.863197], [120.868993, 22.858156], [120.864639, 22.843035], [120.853133, 22.857526], [120.847846, 22.851856], [120.837117, 22.864299], [120.822501, 22.865402], [120.801043, 22.851068], [120.793734, 22.852171], [120.792646, 22.840988], [120.778341, 22.835317], [120.765746, 22.848706], [120.755172, 22.864614], [120.742733, 22.873592], [120.725007, 22.880838], [120.705726, 22.881153], [120.690332, 22.864772], [120.679137, 22.862882], [120.672606, 22.856424], [120.6611, 22.859574], [120.65799, 22.879893], [120.648505, 22.877058], [120.644928, 22.885091], [120.620361, 22.87564], [120.605433, 22.872962], [120.574335, 22.847761], [120.565472, 22.83705], [120.553188, 22.828387], [120.523489, 22.832797], [120.509961, 22.828544], [120.476219, 22.838153], [120.468756, 22.830592], [120.464091, 22.80035], [120.453828, 22.769478], [120.455694, 22.718603], [120.451029, 22.697811], [120.442633, 22.684423], [120.436724, 22.665049], [120.435791, 22.630397], [120.433459, 22.623309], [120.437968, 22.606771], [120.445121, 22.600313], [120.446987, 22.585979], [120.442788, 22.562353], [120.436569, 22.547547], [120.430815, 22.543924], [120.422885, 22.518408], [120.425684, 22.498089], [120.424129, 22.476982]]]}}, {"type": "Feature", "properties": {"COUNTYSN": "10007001", "COUNTYNAME": "彰化縣", "name": "彰化縣", "centroid": [120.5019, 23.9694]}, "geometry": {"type": "Polygon", "coordinates": [[[120.640419, 23.786047], [120.630312, 23.789827], [120.592683, 23.791087], [120.551944, 23.80101], [120.528776, 23.79912], [120.511049, 23.800065], [120.483061, 23.806523], [120.452118, 23.817234], [120.433148, 23.83015], [120.41029, 23.82637], [120.370329, 23.828575], [120.360066, 23.823219], [120.308132, 23.820227], [120.255109, 23.834245], [120.242203, 23.842278], [120.260396, 23.861967], [120.269881, 23.868582], [120.276101, 23.866535], [120.287451, 23.875513], [120.319172, 23.935839], [120.3044, 23.940564], [120.321193, 23.965608], [120.330056, 23.988605], [120.349026, 23.990495], [120.349804, 24.002151], [120.358822, 24.020579], [120.371573, 24.039795], [120.396296, 24.051609], [120.398162, 24.058382], [120.377948, 24.058067], [120.377482, 24.076495], [120.396763, 24.085631], [120.426306, 24.084213], [120.431126, 24.095396], [120.436569, 24.121386], [120.417599, 24.121386], [120.412001, 24.103272], [120.394119, 24.106422], [120.404071, 24.125796], [120.414022, 24.131939], [120.439367, 24.158715], [120.459581, 24.15903], [120.462225, 24.168008], [120.48586, 24.197463], [120.50794, 24.187225], [120.525821, 24.14895], [120.523644, 24.139499], [120.532663, 24.126268], [120.540904, 24.123748], [120.549767, 24.113825], [120.57278, 24.108312], [120.612586, 24.102484], [120.615385, 24.084056], [120.625492, 24.068777], [120.62347, 24.052081], [120.628135, 24.038378], [120.644617, 24.025935], [120.655813, 24.03066], [120.67867, 24.013964], [120.672606, 24.005773], [120.642285, 24.008923], [120.637465, 23.993645], [120.649749, 23.985297], [120.646794, 23.963403], [120.635288, 23.952377], [120.627358, 23.952062], [120.636532, 23.937572], [120.629379, 23.929696], [120.637154, 23.924498], [120.632022, 23.903392], [120.634977, 23.898667], [120.62005, 23.865589], [120.626736, 23.858344], [120.618806, 23.841806], [120.626425, 23.84086], [120.636532, 23.824794], [120.651925, 23.812509], [120.674472, 23.820069], [120.678981, 23.805893], [120.666542, 23.793607], [120.640419, 23.786047]]]}}, {"type": "Feature", "properties": {"COUNTYSN": "10010001", "COUNTYNAME": "嘉義縣", "name": "嘉義縣", "centroid": [120.4988, 23.4422]}, "geometry": {"type": "Polygon", "coordinates": [[[120.65348, 23.224524], [120.628291, 23.229407], [120.609787, 23.222634], [120.597192, 23.228935], [120.586619, 23.224209], [120.578378, 23.214916], [120.565316, 23.220902], [120.554743, 23.217594], [120.541526, 23.227832], [120.526288, 23.23114], [120.51898, 23.23933], [120.530486, 23.248938], [120.532041, 23.255396], [120.522089, 23.273825], [120.521778, 23.287843], [120.526132, 23.292411], [120.522556, 23.311785], [120.539971, 23.327851], [120.533751, 23.336514], [120.515559, 23.343759], [120.50794, 23.342972], [120.503586, 23.35132], [120.511982, 23.355258], [120.50483, 23.368961], [120.494256, 23.369433], [120.484305, 23.379357], [120.499232, 23.387862], [120.490058, 23.39558], [120.479484, 23.387547], [120.473265, 23.3981], [120.438279, 23.413379], [120.430504, 23.406606], [120.408114, 23.413379], [120.381058, 23.403456], [120.349493, 23.40125], [120.333633, 23.385972], [120.311086, 23.385657], [120.310931, 23.375419], [120.292894, 23.375419], [120.285897, 23.367071], [120.286052, 23.350217], [120.276256, 23.34817], [120.265683, 23.352265], [120.267082, 23.340609], [120.256353, 23.331001], [120.237849, 23.326906], [120.220745, 23.296034], [120.204263, 23.291939], [120.188403, 23.301232], [120.180628, 23.290993], [120.170988, 23.304539], [120.148597, 23.314462], [120.148441, 23.31966], [120.11812, 23.340137], [120.122941, 23.354627], [120.138956, 23.374159], [120.144243, 23.372584], [120.147353, 23.384554], [120.157771, 23.383137], [120.16368, 23.39306], [120.159948, 23.406133], [120.154195, 23.404243], [120.148286, 23.415111], [120.15124, 23.426137], [120.146575, 23.437478], [120.154661, 23.447716], [120.144554, 23.459687], [120.144088, 23.470082], [120.155749, 23.484101], [120.155283, 23.491031], [120.124651, 23.488668], [120.119364, 23.495441], [120.118898, 23.514973], [120.127294, 23.52017], [120.142377, 23.517493], [120.145798, 23.5208], [120.158082, 23.515918], [120.166634, 23.517178], [120.180473, 23.51009], [120.195711, 23.512767], [120.223078, 23.504262], [120.241426, 23.508987], [120.247023, 23.516233], [120.242048, 23.541434], [120.256042, 23.546002], [120.262884, 23.534189], [120.272524, 23.531354], [120.276101, 23.543009], [120.290872, 23.5512], [120.29336, 23.564116], [120.31062, 23.564588], [120.306422, 23.571991], [120.319483, 23.572306], [120.332544, 23.578291], [120.333633, 23.591837], [120.356646, 23.594042], [120.366442, 23.607746], [120.379814, 23.609951], [120.3865, 23.620977], [120.402671, 23.626962], [120.429882, 23.618457], [120.444499, 23.630585], [120.460203, 23.629325], [120.478707, 23.632632], [120.48586, 23.630585], [120.503586, 23.63531], [120.506385, 23.626174], [120.51758, 23.611054], [120.536861, 23.594673], [120.556609, 23.592782], [120.576823, 23.583489], [120.618961, 23.584119], [120.625492, 23.590577], [120.648816, 23.593255], [120.643995, 23.579079], [120.650837, 23.572464], [120.670585, 23.578291], [120.676182, 23.570573], [120.694064, 23.576244], [120.709458, 23.575141], [120.718321, 23.568998], [120.73216, 23.577189], [120.732626, 23.597193], [120.724851, 23.603651], [120.730916, 23.610739], [120.754706, 23.614519], [120.763258, 23.612471], [120.777408, 23.602548], [120.803686, 23.59672], [120.813793, 23.600973], [120.825455, 23.586324], [120.819546, 23.574984], [120.820635, 23.562383], [120.814104, 23.55624], [120.808662, 23.535921], [120.820324, 23.52143], [120.827165, 23.483156], [120.839449, 23.471185], [120.863395, 23.473547], [120.880499, 23.467562], [120.887185, 23.475595], [120.917662, 23.475595], [120.931501, 23.470712], [120.937254, 23.473075], [120.947361, 23.46709], [120.957623, 23.469452], [120.948294, 23.464097], [120.936632, 23.463782], [120.926991, 23.455906], [120.912997, 23.458584], [120.900402, 23.454016], [120.885941, 23.4348], [120.864483, 23.423932], [120.849556, 23.420152], [120.849401, 23.412119], [120.830742, 23.386287], [120.82872, 23.375261], [120.804774, 23.367228], [120.788603, 23.352895], [120.783161, 23.342184], [120.759682, 23.344232], [120.758749, 23.336514], [120.748175, 23.322023], [120.740401, 23.320448], [120.730294, 23.310997], [120.730605, 23.305642], [120.712101, 23.308635], [120.703704, 23.300287], [120.703549, 23.289103], [120.693597, 23.284536], [120.671362, 23.289891], [120.65799, 23.295876], [120.642129, 23.293041], [120.643995, 23.281543], [120.642129, 23.256656], [120.648505, 23.248938], [120.65348, 23.224524]], [[120.428638, 23.509145], [120.412156, 23.499064], [120.403915, 23.503789], [120.393653, 23.482525], [120.39925, 23.471027], [120.415111, 23.460317], [120.42926, 23.461104], [120.439678, 23.439525], [120.452895, 23.444881], [120.468756, 23.461577], [120.476841, 23.462049], [120.489591, 23.452284], [120.495189, 23.452914], [120.509339, 23.474807], [120.501253, 23.489771], [120.487726, 23.491976], [120.483216, 23.505364], [120.473576, 23.50694], [120.464246, 23.499222], [120.456005, 23.512137], [120.44792, 23.518123], [120.435014, 23.517178], [120.428638, 23.509145]]]}}, {"type": "Feature", "properties": {"COUNTYSN": "09020001", "COUNTYNAME": "金門縣", "name": "金門縣", "centroid": [118.3523, 24.4463]}, "geometry": {"type": "MultiPolygon", "coordinates": [[[[118.364789, 24.428372], [118.350639, 24.421284], [118.340066, 24.408841], [118.330581, 24.38868], [118.320007, 24.386002], [118.298394, 24.396713], [118.27818, 24.413566], [118.299482, 24.416402], [118.301037, 24.424435], [118.310833, 24.428687], [118.303058, 24.461607], [118.28782, 24.469167], [118.291863, 24.478303], [118.305235, 24.487753], [118.314254, 24.489486], [118.345041, 24.466962], [118.368832, 24.461134], [118.384381, 24.467592], [118.38578, 24.483186], [118.394954, 24.490904], [118.392311, 24.509017], [118.412059, 24.51957], [118.418745, 24.527919], [118.425275, 24.525556], [118.431495, 24.510277], [118.448288, 24.508545], [118.461972, 24.475625], [118.462749, 24.461922], [118.471923, 24.451841], [118.472701, 24.441446], [118.461039, 24.43609], [118.465703, 24.428845], [118.455907, 24.425222], [118.454353, 24.418134], [118.443313, 24.411046], [118.434139, 24.414984], [118.427608, 24.42538], [118.413614, 24.427427], [118.395265, 24.436248], [118.364789, 24.428372]]], [[[118.263408, 24.42538], [118.252212, 24.424592], [118.247859, 24.416244], [118.234797, 24.413881], [118.22609, 24.404903], [118.217071, 24.425222], [118.227178, 24.43042], [118.2292, 24.446486], [118.251435, 24.452786], [118.26714, 24.443336], [118.263408, 24.42538]]]]}}, {"type": "Feature", "properties": {"COUNTYSN": "10018001", "COUNTYNAME": "新竹市", "name": "新竹市", "centroid": [120.9557, 24.7754]}, "geometry": {"type": "Polygon", "coordinates": [[[120.933678, 24.852704], [120.955291, 24.834275], [121.000228, 24.822147], [121.01811, 24.807341], [121.020598, 24.793953], [121.027439, 24.782769], [121.032726, 24.762136], [121.019976, 24.757095], [121.013601, 24.770956], [120.993076, 24.780564], [120.985767, 24.776942], [120.987167, 24.768436], [120.979548, 24.763238], [120.969752, 24.765128], [120.967419, 24.756465], [120.953892, 24.743392], [120.946117, 24.745282], [120.938031, 24.729531], [120.935388, 24.712678], [120.915951, 24.720553], [120.905844, 24.740714], [120.891073, 24.731736], [120.878478, 24.735202], [120.899625, 24.760403], [120.892783, 24.769381], [120.892472, 24.78844], [120.903512, 24.817422], [120.92326, 24.844671], [120.933678, 24.852704]]]}}]}